{
  "type": "FeatureCollection",
  "name": "iraq-adm1",
  "crs": {
    "type": "name",
    "properties": { "name": "urn:ogc:def:crs:OGC:1.3:CRS84" }
  },
  "features": [
    {
      "type": "Feature",
      "properties": { "NAME_1": "Baghdad", "NAME_1_AR": "بغداد" },
      "geometry": {
        "type": "Polygon",
        "coordinates": [[
          [44.10, 33.55], [44.60, 33.55], [44.65, 33.10], [44.15, 33.10], [44.10, 33.55]
        ]]
      }
    },
    {
      "type": "Feature",
      "properties": { "NAME_1": "Basra", "NAME_1_AR": "البصرة" },
      "geometry": {
        "type": "Polygon",
        "coordinates": [[
          [46.80, 31.00], [48.50, 30.50], [48.40, 29.80], [46.90, 29.90], [46.80, 31.00]
        ]]
      }
    },
    {
      "type": "Feature",
      "properties": { "NAME_1": "Erbil", "NAME_1_AR": "أربيل" },
      "geometry": {
        "type": "Polygon",
        "coordinates": [[
          [43.50, 36.60], [44.90, 37.10], [45.10, 36.00], [43.70, 35.90], [43.50, 36.60]
        ]]
      }
    },
    {
      "type": "Feature",
      "properties": { "NAME_1": "Nineveh", "NAME_1_AR": "نينوى (الموصل)" },
      "geometry": {
        "type": "Polygon",
        "coordinates": [[
          [41.50, 36.90], [43.40, 36.90], [43.50, 35.70], [41.60, 35.60], [41.50, 36.90]
        ]]
      }
    },
    {
      "type": "Feature",
      "properties": { "NAME_1": "Karbala", "NAME_1_AR": "كربلاء المقدسة" },
      "geometry": {
        "type": "Polygon",
        "coordinates": [[
          [43.60, 32.80], [44.20, 32.70], [44.15, 32.30], [43.55, 32.35], [43.60, 32.80]
        ]]
      }
    },
    {
      "type": "Feature",
      "properties": { "NAME_1": "Najaf", "NAME_1_AR": "النجف الأشرف" },
      "geometry": {
        "type": "Polygon",
        "coordinates": [[
          [43.30, 32.30], [44.50, 32.20], [44.40, 30.70], [43.20, 30.80], [43.30, 32.30]
        ]]
      }
    },
    {
      "type": "Feature",
      "properties": { "NAME_1": "Sulaymaniyah", "NAME_1_AR": "السليمانية" },
      "geometry": {
        "type": "Polygon",
        "coordinates": [[
          [44.80, 36.20], [46.30, 36.10], [46.00, 35.00], [44.90, 35.10], [44.80, 36.20]
        ]]
      }
    },
    {
      "type": "Feature",
      "properties": { "NAME_1": "Kirkuk", "NAME_1_AR": "كركوك" },
      "geometry": {
        "type": "Polygon",
        "coordinates": [[
          [43.80, 35.80], [44.70, 35.70], [44.60, 35.10], [43.70, 35.20], [43.80, 35.80]
        ]]
      }
    }
  ]
}
