{
  "type": "FeatureCollection",
  "name": "iraq-adm0",
  "crs": {
    "type": "name",
    "properties": { "name": "urn:ogc:def:crs:OGC:1.3:CRS84" }
  },
  "features": [
    {
      "type": "Feature",
      "properties": { "NAME_0": "Iraq", "ISO_3": "IRQ" },
      "geometry": {
        "type": "Polygon",
        "coordinates": [
          [
            [42.3556, 37.3789],
            [43.6833, 37.2833],
            [44.2753, 37.1122],
            [44.7811, 37.1478],
            [45.4125, 36.3211],
            [46.3056, 35.8522],
            [45.7522, 34.6011],
            [46.2011, 33.7022],
            [47.0111, 33.2011],
            [47.5022, 32.5033],
            [48.5522, 29.9511],
            [48.0011, 29.9011],
            [47.2011, 30.1522],
            [46.5022, 29.1033],
            [44.7011, 29.2011],
            [43.5022, 29.1022],
            [42.1011, 30.2011],
            [40.6022, 31.3022],
            [38.7911, 33.3011],
            [40.4011, 34.7022],
            [41.2022, 36.3011],
            [42.3556, 37.3789]
          ]
        ]
      }
    }
  ]
}
